SENTINEL-6A             
1 46984U 20086A   26204.07848740 -.00000059  00000+0  90394-5 0  9993
2 46984  66.0410  60.5060 0007779 269.6212  90.3912 12.80930280264925
SENTINEL-6B             
1 66514U 25264A   26204.07883530 -.00000059  00000+0  10322-4 0  9995
2 66514  66.0410  60.6315 0007830 268.4652  91.5466 12.80930301 31768
